function bodies = celestialBodies_sol()

    sol = createBody( ...
        name = "Sol", ...
        mass = 1.989e30, ...
        colour = [1.00, 0.95, 0.70] ...
    );

    mercury = createBody( ...
        name = "Mercury", ...
        mass = 3.3011e23, ...
        semiMajorAxis = 57.91e9, ...
        eccentricity = 2.056269987428955E-01, ...
        inclination = 7.006832490519121E+00, ... % All bodies compared to the J2000 ecliptic
        rightAscensionOfAscendingNode = 4.836840622847222E+01, ...
        argumentOfPeriapsis = 2.903696874305269E+01, ...
        meanAnomaly = 3.330444416116398E+02, ... % Mean anomaly as of start of Unix epoch (1 Jan 1970, 00:00:00 UTC)
        isBarycentre = false, ...
        parentBody = "Sol", ...
        colour = [0.60, 0.55, 0.52] ... 
    );

    venus = createBody( ...
        name = "Venus", ...
        mass = 4.86731e24, ...
        semiMajorAxis = 108.21e9, ...
        eccentricity = 6.829204571344486E-03, ...
        inclination = 3.394910897594349E+00, ... % All bodies compared to the J2000 ecliptic
        rightAscensionOfAscendingNode = 7.676156902116310E+01, ...
        argumentOfPeriapsis = 5.471941485631271E+01, ...
        meanAnomaly = 1.351535688532740E+02, ... % Mean anomaly as of start of Unix epoch (1 Jan 1970, 00:00:00 UTC)
        isBarycentre = false, ...
        parentBody = "Sol", ...
        colour = [0.90, 0.85, 0.65] ... 
    );

    earth = createBody( ...
        name = "Earth", ...
        mass = 5.97217e24, ...
        semiMajorAxis = 1.495950896889025e11, ...
        eccentricity = 1.668261018193860E-02, ...
        inclination = 0, ... % All bodies compared to the J2000 ecliptic, which Earth defines
        rightAscensionOfAscendingNode = 3.553342888318203E+02, ...
        argumentOfPeriapsis = 1.074020235722734E+02, ...
        meanAnomaly = 3.579159206687349E+02, ... % Mean anomaly as of start of Unix epoch (1 Jan 1970, 00:00:00 UTC)
        isBarycentre = false, ...
        parentBody = "Sol", ...
        colour = [0.25, 0.50, 0.80] ...
    );

    luna = createBody( ...
        name = "Luna", ...
        mass = 7.346e22, ...
        semiMajorAxis = 3.796910736298334E+08, ...
        eccentricity = 6.983863247087546E-02, ...
        inclination = 5.095627796382567E+00, ... % All bodies compared to the J2000 ecliptic
        rightAscensionOfAscendingNode = 3.444856546219569E+02, ...
        argumentOfPeriapsis = 3.279314176652006E+02, ...
        meanAnomaly = 2.458154691733430E+02, ... % Mean anomaly as of start of Unix epoch (1 Jan 1970, 00:00:00 UTC)
        raanPrecessionRate = -0.0529903064, ... % deg/day
        apsidalPrecessionRate = 0.1643522243, ... % deg/day
        isBarycentre = false, ...
        parentBody = "Earth", ...
        colour = [0.70, 0.68, 0.65] ... 
    );

    mars = createBody( ...
        name = "Mars", ...
        mass = 6.4171e23, ...
        semiMajorAxis = 227939366000, ...
        eccentricity = 9.344515328088575E-02, ...
        inclination = 1.852270715087715E+00, ... % All bodies compared to the J2000 ecliptic
        rightAscensionOfAscendingNode = 4.964748431547061E+01, ...
        argumentOfPeriapsis = 2.863372906732896E+02, ...
        meanAnomaly = 3.737377283440608e01, ... % Mean anomaly as of start of Unix epoch (1 Jan 1970, 00:00:00 UTC)
        isBarycentre = false, ...
        parentBody = "Sol", ...
        colour = [0.75, 0.35, 0.20] ... 
    );

    bodies = [sol,mercury,venus,earth,luna,mars];
end